[{"OBJECT_NAME":"STARLINK-1817","OBJECT_ID":"2020-073AX","EPOCH":"2026-03-09T16:52:26.233824","MEAN_MOTION":15.6140576,"ECCENTRICITY":0.00043318,"INCLINATION":53.0491,"RA_OF_ASC_NODE":217.2383,"ARG_OF_PERICENTER":243.125,"MEAN_ANOMALY":116.9321,"EPHEMERIS_TYPE":0,"CLASSIFICATION_TYPE":"U","NORAD_CAT_ID":46715,"ELEMENT_SET_NO":999,"REV_AT_EPOCH":29747,"BSTAR":0.00092097073,"MEAN_MOTION_DOT":0.0008032,"MEAN_MOTION_DDOT":0},{"OBJECT_NAME":"STARLINK-1826","OBJECT_ID":"2020-073BF","EPOCH":"2026-03-10T00:00:02.999808","MEAN_MOTION":15.6009455,"ECCENTRICITY":0.00053849,"INCLINATION":53.0471,"RA_OF_ASC_NODE":178.9606,"ARG_OF_PERICENTER":209.9765,"MEAN_ANOMALY":60.9512,"EPHEMERIS_TYPE":0,"CLASSIFICATION_TYPE":"U","NORAD_CAT_ID":46723,"ELEMENT_SET_NO":999,"REV_AT_EPOCH":583,"BSTAR":0.0016085748,"MEAN_MOTION_DOT":0.00134686,"MEAN_MOTION_DDOT":0}]
